[{"OBJECT_NAME":"STARLINK-3446","OBJECT_ID":"2022-016AK","EPOCH":"2026-03-09T21:24:54.288000","MEAN_MOTION":15.08836611,"ECCENTRICITY":0.00013552,"INCLINATION":53.2176,"RA_OF_ASC_NODE":318.2616,"ARG_OF_PERICENTER":87.5489,"MEAN_ANOMALY":272.5659,"EPHEMERIS_TYPE":0,"CLASSIFICATION_TYPE":"U","NORAD_CAT_ID":51747,"ELEMENT_SET_NO":999,"REV_AT_EPOCH":22359,"BSTAR":-6.751311e-5,"MEAN_MOTION_DOT":-1.362e-5,"MEAN_MOTION_DDOT":0},{"OBJECT_NAME":"DISKSAT B","OBJECT_ID":"2025-305B","EPOCH":"2026-03-09T19:33:34.074144","MEAN_MOTION":15.07484556,"ECCENTRICITY":0.00037827,"INCLINATION":45.0018,"RA_OF_ASC_NODE":250.2098,"ARG_OF_PERICENTER":311.4052,"MEAN_ANOMALY":48.6498,"EPHEMERIS_TYPE":0,"CLASSIFICATION_TYPE":"U","NORAD_CAT_ID":67220,"ELEMENT_SET_NO":999,"REV_AT_EPOCH":1231,"BSTAR":0.00082400752,"MEAN_MOTION_DOT":0.00012481,"MEAN_MOTION_DDOT":0}]
